{
    "links": {
        "self": "http://www.neowsapp.com/rest/v1/neo/54005705?api_key=iIulBulltgU6a56xZRHN4H3l9WmuAYTsLGpBGhQ2"
    },
    "id": "54005705",
    "neo_reference_id": "54005705",
    "name": "(2020 DC4)",
    "designation": "2020 DC4",
    "nasa_jpl_url": "http://ssd.jpl.nasa.gov/sbdb.cgi?sstr=54005705",
    "absolute_magnitude_h": 25.653,
    "estimated_diameter": {
        "kilometers": {
            "estimated_diameter_min": 0.0196768229,
            "estimated_diameter_max": 0.0439987136
        },
        "meters": {
            "estimated_diameter_min": 19.6768228913,
            "estimated_diameter_max": 43.9987135661
        },
        "miles": {
            "estimated_diameter_min": 0.0122266071,
            "estimated_diameter_max": 0.0273395246
        },
        "feet": {
            "estimated_diameter_min": 64.5565076146,
            "estimated_diameter_max": 144.3527394163
        }
    },
    "is_potentially_hazardous_asteroid": false,
    "close_approach_data": [
        {
            "close_approach_date": "2020-02-26",
            "close_approach_date_full": "2020-Feb-26 19:17",
            "epoch_date_close_approach": 1582744620000,
            "relative_velocity": {
                "kilometers_per_second": "14.4579275485",
                "kilometers_per_hour": "52048.5391747228",
                "miles_per_hour": "32340.9381333159"
            },
            "miss_distance": {
                "astronomical": "0.0718111248",
                "lunar": "27.9345275472",
                "kilometers": "10742791.312384176",
                "miles": "6675260.9855505888"
            },
            "orbiting_body": "Earth"
        }
    ],
    "orbital_data": {
        "orbit_id": "1",
        "orbit_determination_date": "2020-02-28 15:12:11",
        "first_observation_date": "2020-02-27",
        "last_observation_date": "2020-02-28",
        "data_arc_in_days": 1,
        "observations_used": 17,
        "orbit_uncertainty": "8",
        "minimum_orbit_intersection": ".0718104",
        "jupiter_tisserand_invariant": "4.715",
        "epoch_osculation": "2458907.5",
        "eccentricity": ".220247917662008",
        "semi_major_axis": "1.36073264136498",
        "inclination": "26.75635278891373",
        "ascending_node_longitude": "337.4420367614198",
        "orbital_period": "579.7725256268212",
        "perihelion_distance": "1.061034110609619",
        "perihelion_argument": "174.4559751704099",
        "aphelion_distance": "1.660431172120341",
        "perihelion_time": "2458900.854163519523",
        "mean_anomaly": "4.126620402346708",
        "mean_motion": ".62093318342532",
        "equinox": "J2000",
        "orbit_class": {
            "orbit_class_type": "AMO",
            "orbit_class_description": "Near-Earth asteroid orbits similar to that of 1221 Amor",
            "orbit_class_range": "1.017 AU < q (perihelion) < 1.3 AU"
        }
    },
    "is_sentry_object": false
}